0 XM-4
1 29520U 06049A   13281.61075659 -.00000035  00000-0  10000-3 0  1187
2 29520 000.0233 335.2794 0000405 003.1494 143.6395 01.00272112 25533
0 XM-4
1 29520U 06049A   13283.38289168 -.00000040  00000-0  10000-3 0  1192
2 29520 000.0259 345.1439 0000222 057.0112 359.6383 01.00272820 25553
0 XM-4
1 29520U 06049A   13286.43849615 -.00000048  00000-0  10000-3 0  1200
2 29520 000.0280 359.7349 0000222 042.4762 022.6162 01.00272834 25587
0 XM-4
1 29520U 06049A   13287.60734605 -.00000049  00000-0  10000-3 0  1214
2 29520 000.0238 014.7290 0000249 356.6750 115.3545 01.00272127 25590
0 XM-4
1 29520U 06049A   13288.38257263 -.00000048  00000-0  10000-3 0  1220
2 29520 000.0239 014.5287 0000189 328.7487 063.3258 01.00271976 25601
0 XM-4
1 29520U 06049A   13290.42460529  .00000000  00000-0  10000-3 0  1237
2 29520 000.0410 048.7724 0001034 157.5284 217.5017 01.00270802 25625
0 XM-4
1 29520U 06049A   13291.60479690 -.00000043  00000-0  10000-3 0  1235
2 29520 000.0063 136.6797 0000393 060.8394 292.2515 01.00271159 25631
0 XM-4
1 29520U 06049A   13292.55061054 -.00000041  00000-0  10000-3 0  1240
2 29520 000.0051 134.7455 0000393 062.7924 273.6605 01.00271750 25649
0 XM-4
1 29520U 06049A   13295.40825796 -.00000036  00000-0  10000-3 0  1253
2 29520 000.0089 134.7072 0000393 062.8875 225.1810 01.00272804 25675
